GEOSCAN 3 (RS92S3)      
1 64893U 25155T   26155.93895482  .00020326  00000+0  60052-3 0  9993
2 64893  97.4538 125.6776 0004823 202.9346 157.1682 15.34969910 78973
INNOSAT 3 (RS92S0)      
1 64894U 25155U   26155.92931440  .00039321  00000+0  89260-3 0  9995
2 64894  97.4489 127.1405 0004169 184.3413 175.7799 15.42934213 79070
KNACKSAT-2              
1 67683U 98067XZ  26153.80264404  .00045408  00000+0  58253-3 0  9991
2 67683  51.6300   6.7601 0010958 153.2067 206.9494 15.58609395 18031
