OBJECT_NAME,OBJECT_ID,EPOCH,MEAN_MOTION,ECCENTRICITY,INCLINATION,RA_OF_ASC_NODE,ARG_OF_PERICENTER,MEAN_ANOMALY,EPHEMERIS_TYPE,CLASSIFICATION_TYPE,NORAD_CAT_ID,ELEMENT_SET_NO,REV_AT_EPOCH,BSTAR,MEAN_MOTION_DOT,MEAN_MOTION_DDOT
GEOSCAN 3 (RS92S3),2025-155T,2026-06-04T22:32:05.696448,15.34969910,.0004823,97.4538,125.6776,202.9346,157.1682,0,U,64893,999,7897,.60051831E-3,.20326E-3,0
INNOSAT 3 (RS92S0),2025-155U,2026-06-04T22:18:12.764160,15.42934213,.00041693,97.4489,127.1405,184.3413,175.7799,0,U,64894,999,7907,.89259782E-3,.39321E-3,0
KNACKSAT-2,1998-067XZ,2026-06-02T19:15:48.445056,15.58609395,.0010958,51.6300,6.7601,153.2067,206.9494,0,U,67683,999,1803,.58253104E-3,.45408E-3,0
